STARLINK-1008           
1 44714C 19074B   26178.06437500  .00121480  00000+0  20313-2 0  1785
2 44714  53.1518  21.3987 0001900 198.0649 280.6643 15.51234190    13
STARLINK-1012           
1 44718C 19074F   26178.15326389  .00058691  00000+0  96732-3 0  1783
2 44718  53.1561  21.2241 0002077 215.4102  72.3890 15.51670133    12
STARLINK-1017           
1 44723C 19074L   26178.19284722 -.00006460  00000+0 -20009-3 0  1780
2 44723  53.0469  22.6893 0003639  97.3614 315.9503 15.32893835    14
STARLINK-1020           
1 44725C 19074N   26178.18451389  .00073047  00000+0  98067-3 0  1788
2 44725  53.1559  44.3790 0003263 161.8621 191.0230 15.57261790    18
STARLINK-1036           
1 44741C 19074AE  26178.10673611  .00055757  00000+0  36865-3 0  1788
2 44741  53.0419  11.4287 0000753  63.5777 183.9774 15.74852858    10
STARLINK-1039           
1 44744C 19074AH  26178.21715278  .00057334  00000+0  19461-2 0  1784
2 44744  53.0577  68.3907 0003862 107.8278  73.4036 15.29924092    14
STARLINK-1042           
1 44747C 19074AL  26178.17618056  .00063711  00000+0  92815-3 0  1789
2 44747  53.0417 287.3327 0001158 123.0274   1.8666 15.55066548    17
STARLINK-1043           
1 44748C 19074AM  26178.14006944  .00025145  00000+0  26101-3 0  1788
2 44748  53.0482  22.6726 0000187 336.7951  63.9182 15.63983235    11
STARLINK-1046           
1 44751C 19074AQ  26178.09145833  .00133750  00000+0  17802-2 0  1786
2 44751  53.0462  45.5040 0005598 133.0720  29.4979 15.57445506    17
STARLINK-1047           
1 44752C 19074AR  26178.12895833 -.00028663  00000+0 -83356-3 0  1789
2 44752  53.0691 353.8249 0002823 159.8623   5.7463 15.34895759    13
STARLINK-1048           
1 44753C 19074AS  26178.15534722  .00017856  00000+0  14920-3 0  1781
2 44753  53.0440 353.6219 0004604 113.4105 240.8888 15.69338763    19
STARLINK-1063           
1 44768C 19074BH  26178.14909722  .00118940  00000+0  19820-2 0  1781
2 44768  53.1545  62.0307 0001933 142.3169  15.7245 15.51334448    17
STARLINK-1067           
1 44771C 19074BL  26178.15881944  .00082855  00000+0  42920-3 0  1784
2 44771  53.0420  23.9652 0002169 252.5106 149.5405 15.80298390    19
STARLINK-1068           
1 44772C 19074BM  26178.16368056  .00045803  00000+0  25931-3 0  1785
2 44772  53.0405 357.8700 0002480 270.7213 354.9205 15.78360411    14
STARLINK-1114           
1 44927C 20001P   26178.20187500  .00037791  00000+0  28824-3 0  1788
2 44927  53.0380 156.0590 0001712 104.7714 351.0969 15.71525376    14
STARLINK-1123           
1 44930C 20001S   26178.20048611  .00042158  00000+0  48989-3 0  1788
2 44930  53.1409 184.3823 0008185  17.5627  27.2514 15.61041233    11
STARLINK-1094           
1 44941C 20001AD  26178.16576389  .00053253  00000+0  73262-3 0  1783
2 44941  53.1498 160.1746 0007806  40.6551 108.3853 15.56584893    14
STARLINK-1122           
1 44949C 20001AM  26178.18312500  .00060899  00000+0  82759-3 0  1781
2 44949  53.1520 160.6774 0007072  36.3483 160.7150 15.56917610    14
STARLINK-1080           
1 44961C 20001AZ  26178.17270833  .00062472  00000+0  51745-3 0  1786
2 44961  53.0433 116.4186 0002985  87.6489 241.9255 15.69536292    14
STARLINK-1090           
1 44968C 20001BG  26178.13590278  .00040092  00000+0  63475-3 0  1784
2 44968  53.1466 149.1630 0005661  46.0402  48.7194 15.52779870    11
STARLINK-1132           
1 45044C 20006A   26178.11437500  .00097526  00000+0  12521-2 0  1780
2 45044  53.1493  89.5625 0003262 101.5666  22.3184 15.58438078    17
STARLINK-1131           
1 45047C 20006D   26178.09979167  .00052414  00000+0  77018-3 0  1780
2 45047  53.1534 122.9639 0005517  67.2837  15.0934 15.54822813    18
STARLINK-1134           
1 45048C 20006E   26178.18590278  .00079019  00000+0  90298-3 0  1788
2 45048  53.0229  71.1641 0007128 139.0657 282.1055 15.61463266    17
STARLINK-1156           
1 45054C 20006L   26178.21229167  .00014777  00000+0  40449-3 0  1788
2 45054  53.1560 130.4952 0005342  55.7070  52.8057 15.36753370    10
STARLINK-1166           
1 45060C 20006S   26178.17131944  .00059772  00000+0  65704-3 0  1780
2 45060  53.0428 104.1894 0005311  78.7170 284.5261 15.62486683    14
STARLINK-1169           
1 45061C 20006T   26178.19631944  .00066824  00000+0  16381-2 0  1780
2 45061  53.1534 128.6750 0006232  38.5921  31.6664 15.40101725    12
STARLINK-1171           
1 45062C 20006U   26178.16576389  .00129180  00000+0  76595-3 0  1788
2 45062  53.0376  68.0151 0002038  76.2931 126.3877 15.77286941    10
STARLINK-1133           
1 45064C 20006W   26178.17756944  .00069325  00000+0  19048-2 0  1781
2 45064  53.1548 107.4408 0005560  68.2256   5.7071 15.36607028    15
STARLINK-1167           
1 45071C 20006AD  26178.14979167  .00071314  00000+0  18028-2 0  1788
2 45071  53.1555 106.2883 0003627  41.6688  39.6827 15.39176936    18
STARLINK-1168           
1 45072C 20006AE  26178.16576389  .00068279  00000+0  18601-2 0  1783
2 45072  53.1563 107.6586 0004745  65.4485  72.5867 15.36878212    17
STARLINK-1172           
1 45074C 20006AG  26178.20395833  .00055214  00000+0  13496-2 0  1785
2 45074  53.1531 105.2276 0004311  49.5533 277.0667 15.40204558    11
STARLINK-1153           
1 45080C 20006AN  26178.14076389  .00063300  00000+0  15961-2 0  1781
2 45080  53.1563 106.2372 0005327  33.1994  96.9516 15.39252322    10
STARLINK-1151           
1 45081C 20006AP  26178.15187500  .00267710  00000+0  73835-3 0  1787
2 45081  53.0463  54.7264 0003849 245.4842 346.8883 15.93027808    16
STARLINK-1185           
1 45087C 20006AV  26178.14006944  .00104490  00000+0  19510-2 0  1788
2 45087  53.1575  85.1657 0005050  84.2430 219.3279 15.48108647    13
STARLINK-1183           
1 45088C 20006AW  26178.18520833  .00094317  00000+0  26028-2 0  1789
2 45088  53.1560  92.2271 0004908  84.0231 252.5147 15.36463345    16
STARLINK-1152           
1 45096C 20006BE  26178.11923611  .00056384  00000+0  94398-3 0  1780
2 45096  53.0324  45.2504 0003383 157.0474 181.2488 15.51225449    19
STARLINK-1184           
1 45098C 20006BG  26178.22479167  .00074405  00000+0  39118-2 0  1788
2 45098  53.0501 108.8085 0005334  89.3490  17.6743 15.15114574    13
STARLINK-1193           
1 45100C 20006BJ  26178.17756944  .00068925  00000+0  56210-3 0  1780
2 45100  53.0457  54.1738 0004072  43.7173 180.1110 15.69902140    12
STARLINK-1143           
1 45179C 20012B   26178.19631944  .00296350  00000+0  63221-3 0  1782
2 45179  53.0295 141.6420 0006579  61.7756  44.6195 15.97719027    17
STARLINK-1202           
1 45183C 20012F   26178.17618056  .00071096  00000+0  19707-2 0  1781
2 45183  53.1547 249.0424 0003347 332.7562 245.4646 15.36345276    12
STARLINK-1216           
1 45185C 20012H   26178.14215278  .00057195  00000+0  15659-2 0  1785
2 45185  53.1549 249.0131 0003494 328.0145 201.4566 15.36734923    13
STARLINK-1225           
1 45187C 20012K   26178.19076389  .00060106  00000+0  16446-2 0  1781
2 45187  53.1553 249.2456 0003745 333.6226 113.7795 15.36750223    13
STARLINK-1230           
1 45189C 20012M   26178.13173611  .00089819  00000+0  24716-2 0  1784
2 45189  53.1550 249.6141 0003665 331.7092  76.2497 15.36560706    15
STARLINK-1234           
1 45190C 20012N   26178.17687500  .00088529  00000+0  42662-3 0  1785
2 45190  53.0331 143.5970 0001407 111.7760 211.0787 15.81860665    13
STARLINK-1269           
1 45197C 20012V   26178.08937500  .00106290  00000+0  29151-2 0  1783
2 45197  53.1550 249.6498 0002332 352.7066 210.6140 15.36659576    16
STARLINK-1154           
1 45198C 20012W   26178.09770833  .00039528  00000+0  38989-3 0  1788
2 45198  53.0394 200.2671 0004119  37.7545  71.6553 15.65249022    11
STARLINK-1199           
1 45201C 20012Z   26178.16854167  .00047402  00000+0  12995-2 0  1782
2 45201  53.1554 233.5471 0005017 351.9599  89.7735 15.36690798    10
STARLINK-1209           
1 45206C 20012AE  26178.21020833  .00040981  00000+0  30001-3 0  1782
2 45206  53.0348 159.4281 0001430 102.5278  14.7576 15.72491536    19
STARLINK-1231           
1 45212C 20012AL  26178.16368056  .00050284  00000+0  17538-2 0  1781
2 45212  53.0360 229.6226 0002158  71.3304 279.8995 15.29050663    13
STARLINK-1271           
1 45217C 20012AR  26178.22201389  .00028163  00000+0  76898-3 0  1784
2 45217  53.1558 233.3940 0004431 356.9384  47.2711 15.36828270    17
STARLINK-1191           
1 45222C 20012AW  26178.09631944  .00061880  00000+0  14760-2 0  1781
2 45222  53.1531 206.4228 0003433 335.1927 126.1114 15.40944223    13
STARLINK-1212           
1 45223C 20012AX  26178.20951389  .00028398  00000+0  21880-3 0  1782
2 45223  53.0376 174.9022 0001587  93.4517 348.2665 15.71289722    16
STARLINK-1215           
1 45225C 20012AZ  26178.21229167  .00015611  00000+0  42438-3 0  1783
2 45225  53.1548 207.6867 0005300 357.6023   6.4731 15.36967803    16
STARLINK-1221           
1 45227C 20012BB  26178.21020833  .00109040  00000+0  22205-2 0  1783
2 45227  53.0636 109.1977 0003406  28.8418  62.3927 15.45603778    19
STARLINK-1222           
1 45228C 20012BC  26178.16229167 -.00003983  00000+0 -54916-4 0  1786
2 45228  53.0501 175.2440 0003782  54.4663 329.9692 15.56580975    10
STARLINK-1226           
1 45229C 20012BD  26178.20326389  .00023618  00000+0  47124-3 0  1783
2 45229  53.1536 202.5200 0005462 358.3470  66.8965 15.46232358    15
STARLINK-1227           
1 45230C 20012BE  26178.15743056  .00040843  00000+0  81285-3 0  1788
2 45230  53.1518 202.8279 0005220 351.7801 130.1358 15.46299180    10
STARLINK-1246           
1 45235C 20012BK  26178.14076389  .00081938  00000+0  22379-2 0  1788
2 45235  53.1551 249.0287 0004104 320.0832 135.2811 15.36794372    19
STARLINK-1270           
1 45237C 20012BM  26178.13381944  .00019581  00000+0  15693-3 0  1782
2 45237  53.0372 177.0905 0001722  99.8140 341.9613 15.70354156    10
STARLINK-1279           
